{"type": "FeatureCollection", "features": [ {"type": "Feature", "properties": {"norad_id": 32289, "name": "YAOGAN-3", "group": "resource", "lat": -78.33111901279003, "lon": 148.06634064464342, "alt_km": 606.8368156494817, "timestamp": "2025-12-09T05:43:20.384317+00:00", "meta": {"OBJECT_NAME": "YAOGAN-3", "OBJECT_ID": "2007-055A", "EPOCH": "2025-12-08T20:29:35.938752", "MEAN_MOTION": 14.89827271, "ECCENTRICITY": 0.0001489, "INCLINATION": 97.8368, "RA_OF_ASC_NODE": 9.5136, "ARG_OF_PERICENTER": 71.8743, "MEAN_ANOMALY": 288.2637, "EPHEMERIS_TYPE": 0, "CLASSIFICATION_TYPE": "U", "NORAD_CAT_ID": 32289, "ELEMENT_SET_NO": 999, "REV_AT_EPOCH": 97751, "BSTAR": 0.00015764, "MEAN_MOTION_DOT": 1.458e-05, "MEAN_MOTION_DDOT": 0}, "tle": {"line1": "1 32289U 07055A   25342.85388818  .00001458  00000+0  15764-3 0  9999", "line2": "2 32289  97.8368   9.5136 0001489  71.8743 288.2637 14.89827271977517"}}, "geometry": {"type": "Point", "coordinates": [148.06634064464342, -78.33111901279003]}}, {"type": "Feature", "properties": {"norad_id": 32376, "name": "COSMO-SKYMED 2", "group": "resource", "lat": -79.43720978277283, "lon": -147.4108627543776, "alt_km": 630.9083788753587, "timestamp": "2025-12-09T05:43:20.384339+00:00", "meta": {"OBJECT_NAME": "COSMO-SKYMED 2", "OBJECT_ID": "2007-059A", "EPOCH": "2025-12-08T20:22:28.968960", "MEAN_MOTION": 14.82159516, "ECCENTRICITY": 0.0001531, "INCLINATION": 97.8812, "RA_OF_ASC_NODE": 164.2313, "ARG_OF_PERICENTER": 85.9959, "MEAN_ANOMALY": 274.1429, "EPHEMERIS_TYPE": 0, "CLASSIFICATION_TYPE": "U", "NORAD_CAT_ID": 32376, "ELEMENT_SET_NO": 999, "REV_AT_EPOCH": 97380, "BSTAR": 0.00014905, "MEAN_MOTION_DOT": 1.135e-05, "MEAN_MOTION_DDOT": 0}, "tle": {"line1": "1 32376U 07059A   25342.84894640  .00001135  00000+0  14905-3 0  9992", "line2": "2 32376  97.8812 164.2313 0001531  85.9959 274.1429 14.82159516973801"}}, "geometry": {"type": "Point", "coordinates": [-147.4108627543776, -79.43720978277283]}}, {"type": "Feature", "properties": {"norad_id": 32382, "name": "RADARSAT-2", "group": "resource", "lat": 17.09345590935828, "lon": 170.5397762062545, "alt_km": 792.0627174826159, "timestamp": "2025-12-09T05:43:20.384356+00:00", "meta": {"OBJECT_NAME": "RADARSAT-2", "OBJECT_ID": "2007-061A", "EPOCH": "2025-12-08T20:34:04.933920", "MEAN_MOTION": 14.29985392, "ECCENTRICITY": 0.0001087, "INCLINATION": 98.5793, "RA_OF_ASC_NODE": 347.5031, "ARG_OF_PERICENTER": 87.4513, "MEAN_ANOMALY": 272.6794, "EPHEMERIS_TYPE": 0, "CLASSIFICATION_TYPE": "U", "NORAD_CAT_ID": 32382, "ELEMENT_SET_NO": 999, "REV_AT_EPOCH": 93875, "BSTAR": 4.0302e-05, "MEAN_MOTION_DOT": 6e-07, "MEAN_MOTION_DDOT": 0}, "tle": {"line1": "1 32382U 07061A   25342.85700155  .00000060  00000+0  40302-4 0  9997", "line2": "2 32382  98.5793 347.5031 0001087  87.4513 272.6794 14.29985392938759"}}, "geometry": {"type": "Point", "coordinates": [170.5397762062545, 17.09345590935828]}}, {"type": "Feature", "properties": {"norad_id": 32783, "name": "CARTOSAT-2A", "group": "resource", "lat": 79.1368368223774, "lon": -101.29511179797151, "alt_km": 624.1699673019311, "timestamp": "2025-12-09T05:43:20.384368+00:00", "meta": {"OBJECT_NAME": "CARTOSAT-2A", "OBJECT_ID": "2008-021A", "EPOCH": "2025-12-08T21:09:52.647840", "MEAN_MOTION": 14.789242, "ECCENTRICITY": 0.0012238, "INCLINATION": 97.7932, "RA_OF_ASC_NODE": 32.8257, "ARG_OF_PERICENTER": 16.7055, "MEAN_ANOMALY": 343.4558, "EPHEMERIS_TYPE": 0, "CLASSIFICATION_TYPE": "U", "NORAD_CAT_ID": 32783, "ELEMENT_SET_NO": 999, "REV_AT_EPOCH": 95067, "BSTAR": 0.00011232, "MEAN_MOTION_DOT": 7.79e-06, "MEAN_MOTION_DDOT": 0}, "tle": {"line1": "1 32783U 08021A   25342.88185935  .00000779  00000+0  11232-3 0  9991", "line2": "2 32783  97.7932  32.8257 0012238  16.7055 343.4558 14.78924200950675"}}, "geometry": {"type": "Point", "coordinates": [-101.29511179797151, 79.1368368223774]}}, {"type": "Feature", "properties": {"norad_id": 33320, "name": "HUANJING 1A (HJ-1A)", "group": "resource", "lat": -81.6473298232544, "lon": 85.34925303074236, "alt_km": 636.731874471342, "timestamp": "2025-12-09T05:43:20.384379+00:00", "meta": {"OBJECT_NAME": "HUANJING 1A (HJ-1A)", "OBJECT_ID": "2008-041A", "EPOCH": "2025-12-08T20:25:45.066720", "MEAN_MOTION": 14.83375132, "ECCENTRICITY": 0.002037, "INCLINATION": 97.6538, "RA_OF_ASC_NODE": 331.3118, "ARG_OF_PERICENTER": 46.5497, "MEAN_ANOMALY": 313.7408, "EPHEMERIS_TYPE": 0, "CLASSIFICATION_TYPE": "U", "NORAD_CAT_ID": 33320, "ELEMENT_SET_NO": 999, "REV_AT_EPOCH": 93018, "BSTAR": 0.00035082, "MEAN_MOTION_DOT": 2.836e-05, "MEAN_MOTION_DDOT": 0}, "tle": {"line1": "1 33320U 08041A   25342.85121605  .00002836  00000+0  35082-3 0  9997", "line2": "2 33320  97.6538 331.3118 0020370  46.5497 313.7408 14.83375132930182"}}, "geometry": {"type": "Point", "coordinates": [85.34925303074236, -81.6473298232544]}}, {"type": "Feature", "properties": {"norad_id": 33321, "name": "HUANJING 1B (HJ-1B)", "group": "resource", "lat": 43.984511429425986, "lon": 162.83224847195197, "alt_km": 599.0784800956471, "timestamp": "2025-12-09T05:43:20.384390+00:00", "meta": {"OBJECT_NAME": "HUANJING 1B (HJ-1B)", "OBJECT_ID": "2008-041B", "EPOCH": "2025-12-08T21:01:09.424992", "MEAN_MOTION": 14.82805494, "ECCENTRICITY": 0.0038228, "INCLINATION": 97.6395, "RA_OF_ASC_NODE": 335.0424, "ARG_OF_PERICENTER": 87.9351, "MEAN_ANOMALY": 272.6241, "EPHEMERIS_TYPE": 0, "CLASSIFICATION_TYPE": "U", "NORAD_CAT_ID": 33321, "ELEMENT_SET_NO": 999, "REV_AT_EPOCH": 93020, "BSTAR": 0.00024812, "MEAN_MOTION_DOT": 1.981e-05, "MEAN_MOTION_DDOT": 0}, "tle": {"line1": "1 33321U 08041B   25342.87580353  .00001981  00000+0  24812-3 0  9998", "line2": "2 33321  97.6395 335.0424 0038228  87.9351 272.6241 14.82805494930203"}}, "geometry": {"type": "Point", "coordinates": [162.83224847195197, 43.984511429425986]}}, {"type": "Feature", "properties": {"norad_id": 33331, "name": "GEOEYE 1", "group": "resource", "lat": -12.170897178975412, "lon": 56.328663354231345, "alt_km": 680.9962765100245, "timestamp": "2025-12-09T05:43:20.384401+00:00", "meta": {"OBJECT_NAME": "GEOEYE 1", "OBJECT_ID": "2008-042A", "EPOCH": "2025-12-08T18:18:08.512128", "MEAN_MOTION": 14.6480519, "ECCENTRICITY": 0.0002788, "INCLINATION": 98.1256, "RA_OF_ASC_NODE": 54.093, "ARG_OF_PERICENTER": 294.4872, "MEAN_ANOMALY": 65.604, "EPHEMERIS_TYPE": 0, "CLASSIFICATION_TYPE": "U", "NORAD_CAT_ID": 33331, "ELEMENT_SET_NO": 999, "REV_AT_EPOCH": 92227, "BSTAR": 0.00024192, "MEAN_MOTION_DOT": 1.243e-05, "MEAN_MOTION_DDOT": 0}, "tle": {"line1": "1 33331U 08042A   25342.76259852  .00001243  00000+0  24192-3 0  9997", "line2": "2 33331  98.1256  54.0930 0002788 294.4872  65.6040 14.64805190922279"}}, "geometry": {"type": "Point", "coordinates": [56.328663354231345, -12.170897178975412]}}, {"type": "Feature", "properties": {"norad_id": 33396, "name": "THEOS", "group": "resource", "lat": 46.50318491921561, "lon": 32.26819476069422, "alt_km": 820.3578200079328, "timestamp": "2025-12-09T05:43:20.384412+00:00", "meta": {"OBJECT_NAME": "THEOS", "OBJECT_ID": "2008-049A", "EPOCH": "2025-12-08T19:21:17.882208", "MEAN_MOTION": 14.20094325, "ECCENTRICITY": 0.0001127, "INCLINATION": 98.5869, "RA_OF_ASC_NODE": 41.0119, "ARG_OF_PERICENTER": 94.7652, "MEAN_ANOMALY": 265.3653, "EPHEMERIS_TYPE": 0, "CLASSIFICATION_TYPE": "U", "NORAD_CAT_ID": 33396, "ELEMENT_SET_NO": 999, "REV_AT_EPOCH": 89094, "BSTAR": 1.7403e-05, "MEAN_MOTION_DOT": -6e-08, "MEAN_MOTION_DDOT": 0}, "tle": {"line1": "1 33396U 08049A   25342.80645697 -.00000006  00000+0  17403-4 0  9991", "line2": "2 33396  98.5869  41.0119 0001127  94.7652 265.3653 14.20094325890941"}}, "geometry": {"type": "Point", "coordinates": [32.26819476069422, 46.50318491921561]}}, {"type": "Feature", "properties": {"norad_id": 33412, "name": "COSMO-SKYMED 3", "group": "resource", "lat": 37.618398014708916, "lon": 19.670479009292915, "alt_km": 539.9948331452388, "timestamp": "2025-12-09T05:43:20.384423+00:00", "meta": {"OBJECT_NAME": "COSMO-SKYMED 3", "OBJECT_ID": "2008-054A", "EPOCH": "2025-12-08T21:07:00.115680", "MEAN_MOTION": 15.05297904, "ECCENTRICITY": 0.0015806, "INCLINATION": 97.8452, "RA_OF_ASC_NODE": 193.2067, "ARG_OF_PERICENTER": 187.0932, "MEAN_ANOMALY": 173.0073, "EPHEMERIS_TYPE": 0, "CLASSIFICATION_TYPE": "U", "NORAD_CAT_ID": 33412, "ELEMENT_SET_NO": 999, "REV_AT_EPOCH": 92829, "BSTAR": 0.00062148, "MEAN_MOTION_DOT": 8.854e-05, "MEAN_MOTION_DDOT": 0}, "tle": {"line1": "1 33412U 08054A   25342.87986245  .00008854  00000+0  62148-3 0  9993", "line2": "2 33412  97.8452 193.2067 0015806 187.0932 173.0073 15.05297904928291"}}, "geometry": {"type": "Point", "coordinates": [19.670479009292915, 37.618398014708916]}}, {"type": "Feature", "properties": {"norad_id": 33446, "name": "YAOGAN-4", "group": "resource", "lat": 47.881107716435906, "lon": -95.48237552552779, "alt_km": 613.855429438011, "timestamp": "2025-12-09T05:43:20.384433+00:00", "meta": {"OBJECT_NAME": "YAOGAN-4", "OBJECT_ID": "2008-061A", "EPOCH": "2025-12-08T19:47:11.729184", "MEAN_MOTION": 14.82664885, "ECCENTRICITY": 0.0013919, "INCLINATION": 97.9177, "RA_OF_ASC_NODE": 272.962, "ARG_OF_PERICENTER": 336.595, "MEAN_ANOMALY": 23.4628, "EPHEMERIS_TYPE": 0, "CLASSIFICATION_TYPE": "U", "NORAD_CAT_ID": 33446, "ELEMENT_SET_NO": 999, "REV_AT_EPOCH": 91745, "BSTAR": 0.00038742, "MEAN_MOTION_DOT": 3.075e-05, "MEAN_MOTION_DDOT": 0}, "tle": {"line1": "1 33446U 08061A   25342.82444131  .00003075  00000+0  38742-3 0  9999", "line2": "2 33446  97.9177 272.9620 0013919 336.5950  23.4628 14.82664885917457"}}, "geometry": {"type": "Point", "coordinates": [-95.48237552552779, 47.881107716435906]}}]}